COSMOS 2433 (720)       
1 32275C 07052A   22231.99979167  .00000000  00000-0  00000-0 0  2319
2 32275  66.0810   2.5627 0002894 201.0848 210.3618  2.13104404    11
COSMOS 2432 (719)       
1 32276C 07052B   22231.99979167  .00000000  00000-0  00000-0 0  2310
2 32276  66.0947   2.6647 0007675 330.2426  29.3573  2.13103583    10
COSMOS 2434 (721)       
1 32393C 07065A   22231.99979167  .00000000  00000-0  00000-0 0  2314
2 32393  64.3767 239.2565 0000634 177.3482 123.8900  2.13103256    19
COSMOS 2436 (723)       
1 32395C 07065C   22231.99979167  .00000000  00000-0  00000-0 0  2316
2 32395  64.3854 239.3142 0014913 350.3179  86.7633  2.13103115    15
COSMOS 2456 (730)       
1 36111C 09070A   22231.99979167 -.00000000  00000-0  00000-0 0  2315
2 36111  64.3664 118.8724 0003068 325.6801 140.2548  2.13099520    12
COSMOS 2457 (733)       
1 36112C 09070B   22231.99979167 -.00000000  00000-0  00000-0 0  2316
2 36112  64.3497 118.7468 0005154 155.9415  77.7837  2.13101618    11
COSMOS 2460 (732)       
1 36402C 10007C   22231.99979167  .00000000  00000-0  00000-0 0  2319
2 36402  65.9517   1.3410 0001993 131.8163  86.0091  2.13106620    10
COSMOS 2476 (744)       
1 37867C 11064A   22231.99979167 -.00000000  00000-0  00000-0 0  2310
2 37867  64.6541 120.2533 0020829 235.1260 136.8452  2.13101856    12
COSMOS 2477 (745)       
1 37868C 11064B   22231.99979167 -.00000000  00000-0  00000-0 0  2311
2 37868  64.6617 120.3188 0018213 235.6924 314.3656  2.13101907    16
COSMOS 2475 (743)       
1 37869C 11064C   22231.99979167 -.00000000  00000-0  00000-0 0  2312
2 37869  64.6690 120.3276 0022273 254.5346 253.6160  2.13102301    19
COSMOS 2485 (747)       
1 39155C 13019A   22231.99979167 -.00000000  00000-0  00000-0 0  2314
2 39155  64.8174 120.6954 0021334 230.8390 185.5340  2.13102132    12
COSMOS 2492 (754)       
1 39620C 14012A   22231.99979167  .00000000  00000-0  00000-0 0  2314
2 39620  65.8378   1.0135 0010760 323.6091 127.1762  2.13103398    14
COSMOS 2500 (755)       
1 40001C 14032A   22231.99979167  .00000000  00000-0  00000-0 0  2311
2 40001  65.7772   0.8699 0007415 188.2467 121.0286  2.13102587    16
COSMOS 2501 (702K)      
1 40315C 14075A   22231.99979167  .00000000  00000-0  00000-0 0  2316
2 40315  63.6831 238.9447 0019441 212.4827 265.1054  2.13101666    14
COSMOS 2514 (751)       
1 41330C 16008A   22231.99979167  .00000000  00000-0  00000-0 0  2312
2 41330  65.5769   0.5460 0010837 202.1716 291.0489  2.13102913    10
COSMOS 2547 (705K)      
1 46805C 20075A   22231.99979167  .00000000  00000-0  00000-0 0  2313
2 46805  64.6544 239.3197 0008795 246.2856 144.6802  2.13103175    19
COSMOS 2522 (752)       
1 42939C 17055A   22231.99979167  .00000000  00000-0  00000-0 0  2311
2 42939  64.1428 239.6525 0010138 244.4928   8.4975  2.13102222    11
COSMOS 2527 (756)       
1 43508C 18053A   22231.99979167 -.00000000  00000-0  00000-0 0  2314
2 43508  64.9802 120.7088 0007436 226.3697  58.7073  2.13102506    13
COSMOS 2529 (757)       
1 43687C 18086A   22231.99979167  .00000000  00000-0  00000-0 0  2317
2 43687  64.3578 239.9859 0011944 263.4265 305.0955  2.13102386    19
COSMOS 2534 (758)       
1 44299C 19030A   22231.99979167  .00000000  00000-0  00000-0 0  2317
2 44299  64.4297 239.8766 0014252 281.3143  61.7385  2.13102039    11
COSMOS 2544 (759)       
1 44850C 19088A   22231.99979167 -.00000000  00000-0  00000-0 0  2314
2 44850  64.9655 120.5595 0011573 258.1155  70.3768  2.13102240    16
COSMOS 2545 (760)       
1 45358C 20018A   22231.99979167  .00000000  00000-0  00000-0 0  2312
2 45358  64.9152   1.1019 0008565 234.9849 302.9067  2.13102863    13
